0 BSAT-1A
1 24769U 97016B   13281.26020103 -.00000237  00000-0  10000-3 0  6455
2 24769 002.5312 065.2384 0003356 110.7022 249.5890 00.99121810 60252
0 BSAT-1A
1 24769U 97016B   13283.27776959 -.00000219  00000-0  10000-3 0  6466
2 24769 002.5357 065.2290 0003348 113.0281 247.2248 00.99121029 60277
0 BSAT-1A
1 24769U 97016B   13285.29548032 -.00000192  00000-0  10000-3 0  6470
2 24769 002.5398 065.2093 0003366 114.6312 245.6403 00.99120260 60298
0 BSAT-1A
1 24769U 97016B   13287.31322870 -.00000155  00000-0  10000-3 0  6485
2 24769 002.5437 065.1941 0003370 116.6082 243.6847 00.99119527 60311
0 BSAT-1A
1 24769U 97016B   13290.33965445 -.00000088  00000-0  10000-3 0  6498
2 24769 002.5520 065.1906 0003375 118.2929 241.9334 00.99118609 60343
0 BSAT-1A
1 24769U 97016B   13293.36586216 -.00000021  00000-0  10000-3 0  6508
2 24769 002.5583 065.1797 0003476 118.4591 241.6260 00.99118072 60371
